ORBCOMM FM24            
1 25478U 98053D   25330.07667316  .00001229  00000+0  44385-3 0  9990
2 25478  45.0072 221.2563 0003218 335.4192  24.6503 14.38592082420758
ORBCOMM FM25            
1 25479U 98053E   25330.05135372  .00001220  00000+0  44129-3 0  9998
2 25479  45.0064 219.6721 0005563 341.3646  18.6998 14.38561074421043
ORBCOMM FM26            
1 25480U 98053F   25330.03328634  .00001068  00000+0  39992-3 0  9995
2 25480  45.0062 217.4195 0007359 354.9429   5.1344 14.37544260420938
ORBCOMM FM27            
1 25481U 98053G   25329.96593393  .00001274  00000+0  45841-3 0  9991
2 25481  45.0045 220.2182 0001904 350.6225   9.4588 14.38594377420960
ORBCOMM FM28            
1 25482U 98053H   25329.84608633  .00001034  00000+0  37983-3 0  9995
2 25482  45.0035 158.0808 0004692  38.6982 321.4202 14.38723735421630
ORBCOMM FM30            
1 25980U 99065A   25329.51834179  .00001205  00000+0  44409-3 0  9993
2 25980  45.0326  45.8720 0005227 113.4068 246.7331 14.37706467357669
ORBCOMM FM31            
1 25981U 99065B   25330.19400554  .00001213  00000+0  44730-3 0  9992
2 25981  45.0240  36.1283 0003676 158.9077 201.1923 14.37635870357315
ORBCOMM FM32            
1 25982U 99065C   25329.58264215  .00001321  00000+0  49197-3 0  9998
2 25982  45.0162  56.6813 0005955 136.8410 223.2905 14.36689009357804
